0 YAOGAN 4 DEB
1 35575U 08061B   13283.51370666  .00001341  00000-0  47792-3 0  4267
2 35575 097.7763 171.1435 0246906 329.7148 150.2725 14.20099837249100
0 YAOGAN 4 DEB
1 35575U 08061B   13285.55623968  .00001354  00000-0  48240-3 0  4273
2 35575 097.7762 172.9428 0246757 323.6565 152.4484 14.20103476249392
0 YAOGAN 4 DEB
1 35575U 08061B   13287.65295005  .00001764  00000-0  62416-3 0  4280
2 35575 097.7759 174.7898 0246603 317.4340 071.6433 14.20111447249697
0 YAOGAN 4 DEB
1 35575U 08061B   13289.91257064  .00001677  00000-0  59437-3 0  4297
2 35575 097.7755 176.7804 0246421 310.7252 103.7774 14.20121609250012
0 YAOGAN 4 DEB
1 35575U 08061B   13292.53204926  .00002067  00000-0  72939-3 0  4306
2 35575 097.7750 179.0868 0246344 302.9697 175.7373 14.20128645250384
0 YAOGAN 4 DEB
1 35575U 08061B   13295.49195838  .00002271  00000-0  79981-3 0  4317
2 35575 097.7744 181.6943 0246169 294.1726 188.2635 14.20140139250809
